MTI                     
1 26102U 00014A   20330.60660053  .00011455  00000-0  15758-3 0  9995
2 26102  97.4801 220.7365 0007547   8.7048 351.4337 15.57417851149584
CFESAT                  
1 30777U 07006F   20330.49366749  .00007452  00000-0  19728-3 0  9991
2 30777  35.4262   5.4173 0005687 219.7447 140.2863 15.37684232761254
SPIRALE A               
1 33751U 09008C   20330.31936608  .00000098  00000-0  57061-3 0  9999
2 33751   2.0900  63.8460 5374376 269.8270  31.5339  4.58765136168675
SPIRALE B               
1 33752U 09008D   20330.16119828  .00000998  00000-0  31154-3 0  9994
2 33752   2.2014  56.9291 6898132 268.2135  18.2749  2.76241349109242
SAPPHIRE                
1 39088U 13009C   20330.57076113  .00000018  00000-0  21758-4 0  9995
2 39088  98.4558 168.6080 0011660 161.9498 198.2103 14.34225408405578
